STARLINK-2424           
1 47834U 21018AZ  26179.48831678 -.00000780  00000+0 -13384-4 0  9997
2 47834  53.1597  89.5647 0001102  86.1176 273.9952 15.31693729293726
STARLINK-2426           
1 47836U 21018BB  26179.03621924  .00004505  00000+0  15684-3 0  9992
2 47836  53.1589  91.6215 0001055  79.1043 281.0077 15.31700244293602
STARLINK-2427           
1 47837U 21018BC  26179.01644092 -.00000959  00000+0 -19148-4 0  9993
2 47837  53.1605  85.7329 0001201  91.4150 268.6989 15.31695829293673
STARLINK-2429           
1 47838U 21018BD  26179.46511857  .00001503  00000+0  60186-4 0  9997
2 47838  53.1587  90.3711 0000907 102.0694 258.0409 15.31700233293658
STARLINK-2431           
1 47839U 21018BE  26178.96385397  .00001817  00000+0  70319-4 0  9997
2 47839  53.1589  63.9203 0001151  82.3508 277.7624 15.31697369293998
STARLINK-2432           
1 47840U 21018BF  26179.02079031 -.00000152  00000+0  68672-5 0  9994
2 47840  53.1607  85.9052 0001169  82.0920 278.0214 15.31697457293662
STARLINK-2433           
1 47841U 21018BG  26179.45888503 -.00000663  00000+0 -96089-5 0  9995
2 47841  53.1618  83.7155 0001350  89.5699 270.5457 15.31693390293738
STARLINK-2435           
1 47843U 21018BJ  26179.06690930  .00000786  00000+0  37078-4 0  9995
2 47843  53.1601 101.7695 0001145  84.2580 275.8552 15.31697649293471
STARLINK-2446           
1 47844U 21018BK  26179.47078107  .00048879  00000+0  15079-2 0  9997
2 47844  53.1597  90.4377 0001136 159.3903 200.7145 15.33123869293655
STARLINK-2453           
1 47845U 21018BL  26179.51945147 -.00000263  00000+0  32887-5 0  9995
2 47845  53.1619 102.9974 0001541  88.5244 271.5934 15.31695952293471
STARLINK-2280           
1 47861U 21021B   26179.51008115  .00000759  00000+0  36226-4 0  9991
2 47861  53.1599 102.7340 0000850  94.5129 265.5969 15.31700248293377
STARLINK-2291           
1 47862U 21021C   26179.66670139  .00889304  00000+0  71980-2 0  9994
2 47862  53.1568  88.8785 0001462  92.2394 170.2864 15.67951656  5940
STARLINK-2326           
1 47870U 21021L   26179.57639654  .00009008  00000+0  30170-3 0  9992
2 47870  53.1595 125.0866 0001466  96.2094 263.9075 15.31698327292955
STARLINK-2329           
1 47873U 21021P   26179.48173661  .00001345  00000+0  55118-4 0  9992
2 47873  53.1609  99.9700 0001360  96.7675 263.3482 15.31696224293392
STARLINK-2330           
1 47874U 21021Q   26178.96225906  .00056095  00000+0  14419-2 0  9994
2 47874  53.1430  61.6039 0003931 102.6665 257.4779 15.38757100293883
STARLINK-2336           
1 47879U 21021V   26179.66670139  .01239776  00000+0  82810-2 0  9999
2 47879  53.1529 110.6066 0001324  88.1403 127.9381 15.72184333  5885
STARLINK-2342           
1 47883U 21021Z   26179.66670139  .00218364  00000+0  88905-3 0  9995
2 47883  53.1534  90.3666 0003533 207.3870 151.1067 15.85052766  5960
STARLINK-2343           
1 47884U 21021AA  26179.58106710  .00000530  00000+0  28847-4 0  9990
2 47884  53.1601 125.1020 0001469  88.8158 271.3012 15.31693985293042
STARLINK-2346           
1 47887U 21021AD  26179.33403858  .00003220  00000+0  11549-3 0  9998
2 47887  53.1577 126.2105 0001187  89.2357 270.8780 15.31700765293014
STARLINK-2354           
1 47894U 21021AL  26179.52500737  .00048347  00000+0  14031-2 0  9998
2 47894  53.1509 111.9071 0001459 104.7913 255.3252 15.35060319293170
STARLINK-2355           
1 47895U 21021AM  26179.51741087  .00001055  00000+0  45788-4 0  9993
2 47895  53.1585 112.5345 0001448  91.2739 268.8429 15.31689481293202
STARLINK-2356           
1 47896U 21021AN  26179.55309837 -.00000120  00000+0  79097-5 0  9995
2 47896  53.1586 125.1756 0001686  98.9839 261.1354 15.31693081293001
STARLINK-2358           
1 47898U 21021AQ  26179.11191382 -.00001253  00000+0 -28611-4 0  9997
2 47898  53.1581 114.3545 0001318 102.4696 257.6453 15.31702296293119
STARLINK-2361           
1 47901U 21021AT  26179.47741507  .00055965  00000+0  13843-2 0  9997
2 47901  53.1551  97.1513 0004657  66.6300 293.5194 15.39930768293437
STARLINK-2363           
1 47903U 21021AV  26179.57771676  .00621787  19900-3  85381-3 0  9991
2 47903  53.1462  58.5503 0008729 248.1915 111.8190 16.05523748294320
STARLINK-2364           
1 47904U 21021AW  26179.47239058  .00000200  00000+0  18202-4 0  9991
2 47904  53.1591  99.8483 0001258  93.7237 266.3908 15.31698681293385
STARLINK-2367           
1 47907U 21021AZ  26179.14763165  .00002419  00000+0  89684-4 0  9995
2 47907  53.1586 127.2190 0001298  95.0730 265.0420 15.31698303292947
STARLINK-2370           
1 47910U 21021BC  26179.10259676  .00001349  00000+0  55232-4 0  9995
2 47910  53.1582 114.4339 0001052  83.1546 276.9575 15.31699964293173
STARLINK-2371           
1 47911U 21021BD  26179.14295099  .00000870  00000+0  39786-4 0  9993
2 47911  53.1584 127.1078 0001141  83.0791 277.0340 15.31697159292835
STARLINK-2378           
1 47916U 21021BJ  26179.47707224  .00001051  00000+0  45616-4 0  9993
2 47916  53.1612  99.9921 0001145 104.6475 255.4653 15.31699824293387
