OBJECT_NAME,OBJECT_ID,EPOCH,MEAN_MOTION,ECCENTRICITY,INCLINATION,RA_OF_ASC_NODE,ARG_OF_PERICENTER,MEAN_ANOMALY,EPHEMERIS_TYPE,CLASSIFICATION_TYPE,NORAD_CAT_ID,ELEMENT_SET_NO,REV_AT_EPOCH,BSTAR,MEAN_MOTION_DOT,MEAN_MOTION_DDOT
STARLINK-2424,2021-018AZ,2026-06-28T11:43:10.569792,15.31693729,.00011028,53.1597,89.5647,86.1176,273.9952,0,U,47834,999,29372,-.13383925E-4,-.78E-5,0
STARLINK-2426,2021-018BB,2026-06-28T00:52:09.342336,15.31700244,.00010558,53.1589,91.6215,79.1043,281.0077,0,U,47836,999,29360,.1568359E-3,.4505E-4,0
STARLINK-2427,2021-018BC,2026-06-28T00:23:40.495488,15.31695829,.0001201,53.1605,85.7329,91.4150,268.6989,0,U,47837,999,29367,-.19148038E-4,-.959E-5,0
STARLINK-2429,2021-018BD,2026-06-28T11:09:46.244448,15.31700233,.00009072,53.1587,90.3711,102.0694,258.0409,0,U,47838,999,29365,.60186214E-4,.1503E-4,0
STARLINK-2431,2021-018BE,2026-06-27T23:07:56.983008,15.31697369,.0001151,53.1589,63.9203,82.3508,277.7624,0,U,47839,999,29399,.70319E-4,.1817E-4,0
STARLINK-2432,2021-018BF,2026-06-28T00:29:56.282784,15.31697457,.00011696,53.1607,85.9052,82.0920,278.0214,0,U,47840,999,29366,.686715E-5,-.152E-5,0
STARLINK-2433,2021-018BG,2026-06-28T11:00:47.666592,15.31693390,.00013501,53.1618,83.7155,89.5699,270.5457,0,U,47841,999,29373,-.96089E-5,-.663E-5,0
STARLINK-2435,2021-018BJ,2026-06-28T01:36:20.963520,15.31697649,.00011453,53.1601,101.7695,84.2580,275.8552,0,U,47843,999,29347,.3707752E-4,.786E-5,0
STARLINK-2446,2021-018BK,2026-06-28T11:17:55.484448,15.33123869,.0001136,53.1597,90.4377,159.3903,200.7145,0,U,47844,999,29365,.1507886E-2,.48879E-3,0
STARLINK-2453,2021-018BL,2026-06-28T12:28:00.607008,15.31695952,.0001541,53.1619,102.9974,88.5244,271.5934,0,U,47845,999,29347,.3288666E-5,-.263E-5,0
STARLINK-2280,2021-021B,2026-06-28T12:14:31.011360,15.31700248,.00008506,53.1599,102.7340,94.5129,265.5969,0,U,47861,999,29337,.36225734E-4,.759E-5,0
STARLINK-2291,2021-021C,2026-06-28T16:00:03.000096,15.67951656,.00014621,53.1568,88.8785,92.2394,170.2864,0,U,47862,999,594,.71980146E-2,.889304E-2,0
STARLINK-2326,2021-021L,2026-06-28T13:50:00.661056,15.31698327,.00014669,53.1595,125.0866,96.2094,263.9075,0,U,47870,999,29295,.30169686E-3,.9008E-4,0
STARLINK-2329,2021-021P,2026-06-28T11:33:42.043104,15.31696224,.00013607,53.1609,99.9700,96.7675,263.3482,0,U,47873,999,29339,.5511845E-4,.1345E-4,0
STARLINK-2330,2021-021Q,2026-06-27T23:05:39.182784,15.38757100,.0003931,53.1430,61.6039,102.6665,257.4779,0,U,47874,999,29388,.14419E-2,.56095E-3,0
STARLINK-2336,2021-021V,2026-06-28T16:00:03.000096,15.72184333,.00013245,53.1529,110.6066,88.1403,127.9381,0,U,47879,999,588,.82810194E-2,.1239776E-1,0
STARLINK-2342,2021-021Z,2026-06-28T16:00:03.000096,15.85052766,.00035339,53.1534,90.3666,207.3870,151.1067,0,U,47883,999,596,.88905495E-3,.218364E-2,0
STARLINK-2343,2021-021AA,2026-06-28T13:56:44.197440,15.31693985,.00014699,53.1601,125.1020,88.8158,271.3012,0,U,47884,999,29304,.28847412E-4,.53E-5,0
STARLINK-2346,2021-021AD,2026-06-28T08:01:00.933312,15.31700765,.00011877,53.1577,126.2105,89.2357,270.8780,0,U,47887,999,29301,.11549486E-3,.322E-4,0
STARLINK-2354,2021-021AL,2026-06-28T12:36:00.636768,15.35060319,.0001459,53.1509,111.9071,104.7913,255.3252,0,U,47894,999,29317,.14031144E-2,.48347E-3,0
STARLINK-2355,2021-021AM,2026-06-28T12:25:04.299168,15.31689481,.00014485,53.1585,112.5345,91.2739,268.8429,0,U,47895,999,29320,.45788253E-4,.1055E-4,0
STARLINK-2356,2021-021AN,2026-06-28T13:16:27.699168,15.31693081,.00016867,53.1586,125.1756,98.9839,261.1354,0,U,47896,999,29300,.7909682E-5,-.12E-5,0
STARLINK-2358,2021-021AQ,2026-06-28T02:41:09.354048,15.31702296,.00013185,53.1581,114.3545,102.4696,257.6453,0,U,47898,999,29311,-.28611468E-4,-.1253E-4,0
STARLINK-2361,2021-021AT,2026-06-28T11:27:28.662048,15.39930768,.00046575,53.1551,97.1513,66.6300,293.5194,0,U,47901,999,29343,.13842855E-2,.55965E-3,0
STARLINK-2363,2021-021AV,2026-06-28T13:51:54.728064,16.05523748,.00087292,53.1462,58.5503,248.1915,111.8190,0,U,47903,999,29432,.85381151E-3,.621787E-2,.19900277E-3
STARLINK-2364,2021-021AW,2026-06-28T11:20:14.546112,15.31698681,.00012586,53.1591,99.8483,93.7237,266.3908,0,U,47904,999,29338,.18202485E-4,.2E-5,0
STARLINK-2367,2021-021AZ,2026-06-28T03:32:35.374560,15.31698303,.00012985,53.1586,127.2190,95.0730,265.0420,0,U,47907,999,29294,.89683597E-4,.2419E-4,0
STARLINK-2370,2021-021BC,2026-06-28T02:27:44.360064,15.31699964,.00010524,53.1582,114.4339,83.1546,276.9575,0,U,47910,999,29317,.5523162E-4,.1349E-4,0
STARLINK-2371,2021-021BD,2026-06-28T03:25:50.965536,15.31697159,.00011411,53.1584,127.1078,83.0791,277.0340,0,U,47911,999,29283,.3978577E-4,.87E-5,0
STARLINK-2378,2021-021BJ,2026-06-28T11:26:59.041536,15.31699824,.00011451,53.1612,99.9921,104.6475,255.4653,0,U,47916,999,29338,.45616169E-4,.1051E-4,0
